start=new Date('2022-09-18T00:00:00.000Z').valueOf();
sats=[{"COUNTRY_CODE":"US","DECAY_DATE":null,"SITE":"AFETR","PERIAPSIS":"546.282","TLE_LINE2":"2 47144  53.0542 220.6370 0001403  76.2858 283.8287 15.06387077100772","EPOCH":"2022-09-17T04:29:01.667904","INCLINATION":"53.0542","MEAN_ANOMALY":"283.8287","RCS_SIZE":"LARGE","SEMIMAJOR_AXIS":"6925.388","CLASSIFICATION_TYPE":"U","APOAPSIS":"548.225","GP_ID":"212811641","MEAN_MOTION":"15.06387077","LAUNCH_DATE":"2020-11-25","MEAN_MOTION_DDOT":"0.0000000000000","REV_AT_EPOCH":"10077","OBJECT_TYPE":"PAYLOAD","ELEMENT_SET_NO":"999","BSTAR":"0.00006583800000","RA_OF_ASC_NODE":"220.6370","CENTER_NAME":"EARTH","NORAD_CAT_ID":"47144","PERIOD":"95.593","EPHEMERIS_TYPE":"0","FILE":"3576375","MEAN_ELEMENT_THEORY":"SGP4","TIME_SYSTEM":"UTC","TLE_LINE1":"1 47144U 20088Y   22260.18682486  .00000699  00000-0  65838-4 0  9991","REF_FRAME":"TEME","OBJECT_ID":"2020-088Y","ECCENTRICITY":"0.00014030","OBJECT_NAME":"STARLINK-1857","ARG_OF_PERICENTER":"76.2858","MEAN_MOTION_DOT":"0.00000699"},{"ECCENTRICITY":"0.00015190","OBJECT_ID":"2020-088AB","REF_FRAME":"TEME","TLE_LINE1":"1 47147U 20088AB  22260.67521330  .00000981  00000-0  84736-4 0  9990","MEAN_MOTION_DOT":"0.00000981","OBJECT_NAME":"STARLINK-1860","ARG_OF_PERICENTER":"70.1423","NORAD_CAT_ID":"47147","CENTER_NAME":"EARTH","RA_OF_ASC_NODE":"238.4470","ELEMENT_SET_NO":"999","BSTAR":"0.00008473600000","OBJECT_TYPE":"PAYLOAD","TIME_SYSTEM":"UTC","MEAN_ELEMENT_THEORY":"SGP4","FILE":"3576621","EPHEMERIS_TYPE":"0","PERIOD":"95.593","APOAPSIS":"548.287","CLASSIFICATION_TYPE":"U","SEMIMAJOR_AXIS":"6925.370","REV_AT_EPOCH":"10057","LAUNCH_DATE":"2020-11-25","MEAN_MOTION_DDOT":"0.0000000000000","MEAN_MOTION":"15.06393125","GP_ID":"212869362","TLE_LINE2":"2 47147  53.0521 238.4470 0001519  70.1423 289.9730 15.06393125100578","PERIAPSIS":"546.183","SITE":"AFETR","DECAY_DATE":null,"COUNTRY_CODE":"US","RCS_SIZE":"LARGE","MEAN_ANOMALY":"289.9730","INCLINATION":"53.0521","EPOCH":"2022-09-17T16:12:18.429120"},{"OBJECT_TYPE":"PAYLOAD","BSTAR":"0.00000015351000","ELEMENT_SET_NO":"999","RA_OF_ASC_NODE":"227.3768","CENTER_NAME":"EARTH","NORAD_CAT_ID":"47148","PERIOD":"95.592","EPHEMERIS_TYPE":"0","FILE":"3576621","MEAN_ELEMENT_THEORY":"SGP4","TIME_SYSTEM":"UTC","TLE_LINE1":"1 47148U 20088AC  22260.91571945 -.00000279  00000-0  15351-6 0  9995","REF_FRAME":"TEME","OBJECT_ID":"2020-088AC","ECCENTRICITY":"0.00016480","OBJECT_NAME":"STARLINK-1861","ARG_OF_PERICENTER":"67.6464","MEAN_MOTION_DOT":"-0.00000279","COUNTRY_CODE":"US","SITE":"AFETR","DECAY_DATE":null,"PERIAPSIS":"546.088","TLE_LINE2":"2 47148  53.0522 227.3768 0001648  67.6464 292.4700 15.06394702100743","EPOCH":"2022-09-17T21:58:38.160480","INCLINATION":"53.0522","MEAN_ANOMALY":"292.4700","RCS_SIZE":"LARGE","SEMIMAJOR_AXIS":"6925.365","CLASSIFICATION_TYPE":"U","APOAPSIS":"548.371","GP_ID":"212870086","MEAN_MOTION":"15.06394702","LAUNCH_DATE":"2020-11-25","REV_AT_EPOCH":"10074","MEAN_MOTION_DDOT":"0.0000000000000"},{"SEMIMAJOR_AXIS":"6925.376","CLASSIFICATION_TYPE":"U","APOAPSIS":"548.152","MEAN_MOTION":"15.06390983","GP_ID":"212868864","LAUNCH_DATE":"2020-11-25","MEAN_MOTION_DDOT":"0.0000000000000","REV_AT_EPOCH":"10133","SITE":"AFETR","DECAY_DATE":null,"PERIAPSIS":"546.331","COUNTRY_CODE":"US","TLE_LINE2":"2 47149  53.0535 237.5342 0001315  86.5035 273.6104 15.06390983101336","MEAN_ANOMALY":"273.6104","INCLINATION":"53.0535","EPOCH":"2022-09-17T21:04:14.072160","RCS_SIZE":"LARGE","OBJECT_ID":"2020-088AD","TLE_LINE1":"1 47149U 20088AD  22260.87794065  .00000201  00000-0  32388-4 0  9992","REF_FRAME":"TEME","ECCENTRICITY":"0.00013150","MEAN_MOTION_DOT":"0.00000201","OBJECT_NAME":"STARLINK-1862","ARG_OF_PERICENTER":"86.5035","BSTAR":"0.00003238800000","ELEMENT_SET_NO":"999","OBJECT_TYPE":"PAYLOAD","CENTER_NAME":"EARTH","NORAD_CAT_ID":"47149","RA_OF_ASC_NODE":"237.5342","EPHEMERIS_TYPE":"0","PERIOD":"95.593","FILE":"3576621","MEAN_ELEMENT_THEORY":"SGP4","TIME_SYSTEM":"UTC"},{"DECAY_DATE":null,"SITE":"AFETR","PERIAPSIS":"546.205","COUNTRY_CODE":"US","TLE_LINE2":"2 47150  53.0541 227.5567 0001502  78.5209 281.5948 15.06389633100743","INCLINATION":"53.0541","MEAN_ANOMALY":"281.5948","EPOCH":"2022-09-17T20:54:57.009888","RCS_SIZE":"LARGE","SEMIMAJOR_AXIS":"6925.380","CLASSIFICATION_TYPE":"U","APOAPSIS":"548.286","MEAN_MOTION":"15.06389633","GP_ID":"212869114","LAUNCH_DATE":"2020-11-25","REV_AT_EPOCH":"10074","MEAN_MOTION_DDOT":"0.0000000000000","BSTAR":"0.00002808700000","ELEMENT_SET_NO":"999","OBJECT_TYPE":"PAYLOAD","CENTER_NAME":"EARTH","NORAD_CAT_ID":"47150","RA_OF_ASC_NODE":"227.5567","EPHEMERIS_TYPE":"0","PERIOD":"95.593","MEAN_ELEMENT_THEORY":"SGP4","FILE":"3576621","TIME_SYSTEM":"UTC","OBJECT_ID":"2020-088AE","TLE_LINE1":"1 47150U 20088AE  22260.87149317  .00000137  00000-0  28087-4 0  9997","REF_FRAME":"TEME","ECCENTRICITY":"0.00015020","MEAN_MOTION_DOT":"0.00000137","ARG_OF_PERICENTER":"78.5209","OBJECT_NAME":"STARLINK-1863"},{"FILE":"3576375","MEAN_ELEMENT_THEORY":"SGP4","TIME_SYSTEM":"UTC","PERIOD":"95.593","EPHEMERIS_TYPE":"0","RA_OF_ASC_NODE":"240.2558","CENTER_NAME":"EARTH","NORAD_CAT_ID":"47151","OBJECT_TYPE":"PAYLOAD","BSTAR":"-0.00007209700000","ELEMENT_SET_NO":"999","ARG_OF_PERICENTER":"75.6660","OBJECT_NAME":"STARLINK-1864","MEAN_MOTION_DOT":"-0.00001355","ECCENTRICITY":"0.00014510","TLE_LINE1":"1 47151U 20088AF  22260.27344517 -.00001355  00000-0 -72097-4 0  9996","REF_FRAME":"TEME","OBJECT_ID":"2020-088AF","RCS_SIZE":"LARGE","EPOCH":"2022-09-17T06:33:45.662688","INCLINATION":"53.0536","MEAN_ANOMALY":"284.4490","TLE_LINE2":"2 47151  53.0536 240.2558 0001451  75.6660 284.4490 15.06390139100503","COUNTRY_CODE":"US","SITE":"AFETR","DECAY_DATE":null,"PERIAPSIS":"546.239","REV_AT_EPOCH":"10050","LAUNCH_DATE":"2020-11-25","MEAN_MOTION_DDOT":"0.0000000000000","GP_ID":"212812888","MEAN_MOTION":"15.06390139","APOAPSIS":"548.249","SEMIMAJOR_AXIS":"6925.379","CLASSIFICATION_TYPE":"U"},{"LAUNCH_DATE":"2020-11-25","MEAN_MOTION_DDOT":"0.0000000000000","REV_AT_EPOCH":"10060","MEAN_MOTION":"15.06402256","GP_ID":"212869586","APOAPSIS":"548.187","CLASSIFICATION_TYPE":"U","SEMIMAJOR_AXIS":"6925.342","RCS_SIZE":"LARGE","INCLINATION":"53.0522","MEAN_ANOMALY":"270.0205","EPOCH":"2022-09-17T22:06:33.592032","TLE_LINE2":"2 47152  53.0522 237.3204 0001416  90.0946 270.0205 15.06402256100603","PERIAPSIS":"546.226","SITE":"AFETR","DECAY_DATE":null,"COUNTRY_CODE":"US","MEAN_MOTION_DOT":"0.00001715","ARG_OF_PERICENTER":"90.0946","OBJECT_NAME":"STARLINK-1866","ECCENTRICITY":"0.00014160","OBJECT_ID":"2020-088AG","REF_FRAME":"TEME","TLE_LINE1":"1 47152U 20088AG  22260.92122213  .00001715  00000-0  13400-3 0  9996","TIME_SYSTEM":"UTC","MEAN_ELEMENT_THEORY":"SGP4","FILE":"3576621","EPHEMERIS_TYPE":"0","PERIOD":"95.592","NORAD_CAT_ID":"47152","CENTER_NAME":"EARTH","RA_OF_ASC_NODE":"237.3204","ELEMENT_SET_NO":"999","BSTAR":"0.00013400000000","OBJECT_TYPE":"PAYLOAD"},{"CENTER_NAME":"EARTH","NORAD_CAT_ID":"47153","RA_OF_ASC_NODE":"244.6742","BSTAR":"-0.00010732000000","ELEMENT_SET_NO":"999","OBJECT_TYPE":"PAYLOAD","MEAN_ELEMENT_THEORY":"SGP4","FILE":"3576375","TIME_SYSTEM":"UTC","EPHEMERIS_TYPE":"0","PERIOD":"95.592","ECCENTRICITY":"0.00016050","OBJECT_ID":"2020-088AH","TLE_LINE1":"1 47153U 20088AH  22260.45546479 -.00001880  00000-0 -10732-3 0  9999","REF_FRAME":"TEME","MEAN_MOTION_DOT":"-0.00001880","ARG_OF_PERICENTER":"84.7045","OBJECT_NAME":"STARLINK-1867","TLE_LINE2":"2 47153  53.0542 244.6742 0001605  84.7045 275.4127 15.06405835100466","DECAY_DATE":null,"SITE":"AFETR","PERIAPSIS":"546.084","COUNTRY_CODE":"US","RCS_SIZE":"LARGE","MEAN_ANOMALY":"275.4127","INCLINATION":"53.0542","EPOCH":"2022-09-17T10:55:52.157856","APOAPSIS":"548.307","SEMIMAJOR_AXIS":"6925.331","CLASSIFICATION_TYPE":"U","MEAN_MOTION_DDOT":"0.0000000000000","LAUNCH_DATE":"2020-11-25","REV_AT_EPOCH":"10046","MEAN_MOTION":"15.06405835","GP_ID":"212811891"},{"APOAPSIS":"548.254","SEMIMAJOR_AXIS":"6925.347","CLASSIFICATION_TYPE":"U","REV_AT_EPOCH":"10065","LAUNCH_DATE":"2020-11-25","MEAN_MOTION_DDOT":"0.0000000000000","MEAN_MOTION":"15.06400516","GP_ID":"212811642","TLE_LINE2":"2 47154  53.0532 230.1331 0001504  69.5536 290.5614 15.06400516100655","SITE":"AFETR","DECAY_DATE":null,"PERIAPSIS":"546.170","COUNTRY_CODE":"US","RCS_SIZE":"LARGE","INCLINATION":"53.0532","MEAN_ANOMALY":"290.5614","EPOCH":"2022-09-17T07:06:55.984320","ECCENTRICITY":"0.00015040","OBJECT_ID":"2020-088AJ","TLE_LINE1":"1 47154U 20088AJ  22260.29648130  .00000314  00000-0  40008-4 0  9998","REF_FRAME":"TEME","MEAN_MOTION_DOT":"0.00000314","ARG_OF_PERICENTER":"69.5536","OBJECT_NAME":"STARLINK-1868","CENTER_NAME":"EARTH","NORAD_CAT_ID":"47154","RA_OF_ASC_NODE":"230.1331","BSTAR":"0.00004000800000","ELEMENT_SET_NO":"999","OBJECT_TYPE":"PAYLOAD","MEAN_ELEMENT_THEORY":"SGP4","FILE":"3576375","TIME_SYSTEM":"UTC","EPHEMERIS_TYPE":"0","PERIOD":"95.592"},{"OBJECT_TYPE":"PAYLOAD","BSTAR":"0.00007133900000","ELEMENT_SET_NO":"999","RA_OF_ASC_NODE":"247.3211","CENTER_NAME":"EARTH","NORAD_CAT_ID":"47155","PERIOD":"95.593","EPHEMERIS_TYPE":"0","FILE":"3576621","MEAN_ELEMENT_THEORY":"SGP4","TIME_SYSTEM":"UTC","TLE_LINE1":"1 47155U 20088AK  22260.92862199  .00000781  00000-0  71339-4 0  9991","REF_FRAME":"TEME","OBJECT_ID":"2020-088AK","ECCENTRICITY":"0.00015310","OBJECT_NAME":"STARLINK-1869","ARG_OF_PERICENTER":"68.7271","MEAN_MOTION_DOT":"0.00000781","COUNTRY_CODE":"US","SITE":"AFETR","DECAY_DATE":null,"PERIAPSIS":"546.174","TLE_LINE2":"2 47155  53.0546 247.3211 0001531  68.7271 291.3881 15.06393145100468","EPOCH":"2022-09-17T22:17:12.939936","MEAN_ANOMALY":"291.3881","INCLINATION":"53.0546","RCS_SIZE":"LARGE","SEMIMAJOR_AXIS":"6925.370","CLASSIFICATION_TYPE":"U","APOAPSIS":"548.295","GP_ID":"212869363","MEAN_MOTION":"15.06393145","LAUNCH_DATE":"2020-11-25","REV_AT_EPOCH":"10046","MEAN_MOTION_DDOT":"0.0000000000000"}];
